{
  "type": "FeatureCollection",
  "features": [
    {
      "type": "Feature",
      "properties": {
        "norad_id": 35073,
        "name": "COSMOS 2251 DEB",
        "group": "cosmos-2251-debris",
        "lat": -3.2270611054738048,
        "lon": -43.70924323957223,
        "alt_km": 563.1113912051424,
        "timestamp": "2025-12-19T06:59:44.302690+00:00",
        "meta_object_name": "COSMOS 2251 DEB",
        "meta_object_id": "1993-036AJC",
        "meta_epoch": "2025-12-15T05:25:47.046144",
        "meta_mean_motion": 15.00831653,
        "meta_eccentricity": 0.00109074,
        "meta_inclination": 73.9997,
        "meta_ra_of_asc_node": 325.5063,
        "meta_arg_of_pericenter": 67.0121,
        "meta_mean_anomaly": 293.2216,
        "meta_ephemeris_type": 0,
        "meta_classification_type": "U",
        "meta_norad_cat_id": 35073,
        "meta_element_set_no": 999,
        "meta_rev_at_epoch": 67516,
        "meta_bstar": 0.001951072,
        "meta_mean_motion_dot": 0.00024882,
        "meta_mean_motion_ddot": 0,
        "tle_line1": "1 35073U 93036AJC 25349.22623896  .00024882  00000+0  19511-2 0  9992",
        "tle_line2": "2 35073  73.9997 325.5063 0010907  67.0121 293.2216 15.00831653675164"
      },
      "geometry": {
        "type": "Point",
        "coordinates": [
          -43.70924323957223,
          -3.2270611054738048
        ]
      }
    },
    {
      "type": "Feature",
      "properties": {
        "norad_id": 35284,
        "name": "COSMOS 2251 DEB",
        "group": "cosmos-2251-debris",
        "lat": 47.888162814064046,
        "lon": -89.19206158488709,
        "alt_km": 757.9487221454237,
        "timestamp": "2025-12-19T06:59:44.302701+00:00",
        "meta_object_name": "COSMOS 2251 DEB",
        "meta_object_id": "1993-036AJN",
        "meta_epoch": "2025-12-16T00:22:37.828704",
        "meta_mean_motion": 14.38321694,
        "meta_eccentricity": 0.00169136,
        "meta_inclination": 74.0489,
        "meta_ra_of_asc_node": 258.3918,
        "meta_arg_of_pericenter": 334.2537,
        "meta_mean_anomaly": 41.1453,
        "meta_ephemeris_type": 0,
        "meta_classification_type": "U",
        "meta_norad_cat_id": 35284,
        "meta_element_set_no": 999,
        "meta_rev_at_epoch": 65573,
        "meta_bstar": 0.00015700211,
        "meta_mean_motion_dot": 4.52e-06,
        "meta_mean_motion_ddot": 0,
        "tle_line1": "1 35284U 93036AJN 25350.01571561  .00000452  00000+0  15700-3 0  9990",
        "tle_line2": "2 35284  74.0489 258.3918 0016913 334.2537  41.1453 14.38321694655734"
      },
      "geometry": {
        "type": "Point",
        "coordinates": [
          -89.19206158488709,
          47.888162814064046
        ]
      }
    },
    {
      "type": "Feature",
      "properties": {
        "norad_id": 35287,
        "name": "COSMOS 2251 DEB",
        "group": "cosmos-2251-debris",
        "lat": -0.370435553549676,
        "lon": 84.20322348936583,
        "alt_km": 785.8887815341723,
        "timestamp": "2025-12-19T06:59:44.302711+00:00",
        "meta_object_name": "COSMOS 2251 DEB",
        "meta_object_id": "1993-036AJR",
        "meta_epoch": "2025-12-18T18:36:06.291648",
        "meta_mean_motion": 14.36381513,
        "meta_eccentricity": 0.00178372,
        "meta_inclination": 74.0304,
        "meta_ra_of_asc_node": 265.0457,
        "meta_arg_of_pericenter": 0.3863,
        "meta_mean_anomaly": 30.6071,
        "meta_ephemeris_type": 0,
        "meta_classification_type": "U",
        "meta_norad_cat_id": 35287,
        "meta_element_set_no": 999,
        "meta_rev_at_epoch": 86979,
        "meta_bstar": 0.00010603827,
        "meta_mean_motion_dot": 2.85e-06,
        "meta_mean_motion_ddot": 0,
        "tle_line1": "1 35287U 93036AJR 25352.77507282  .00000285  00000+0  10604-3 0  9999",
        "tle_line2": "2 35287  74.0304 265.0457 0017837   0.3863  30.6071 14.36381513869791"
      },
      "geometry": {
        "type": "Point",
        "coordinates": [
          84.20322348936583,
          -0.370435553549676
        ]
      }
    },
    {
      "type": "Feature",
      "properties": {
        "norad_id": 35288,
        "name": "COSMOS 2251 DEB",
        "group": "cosmos-2251-debris",
        "lat": -58.74129347312889,
        "lon": -25.813625822395036,
        "alt_km": 669.2027265494544,
        "timestamp": "2025-12-19T06:59:44.302721+00:00",
        "meta_object_name": "COSMOS 2251 DEB",
        "meta_object_id": "1993-036AJS",
        "meta_epoch": "2025-12-18T09:59:01.456512",
        "meta_mean_motion": 14.6551495,
        "meta_eccentricity": 0.00391709,
        "meta_inclination": 73.9507,
        "meta_ra_of_asc_node": 4.189,
        "meta_arg_of_pericenter": 236.8984,
        "meta_mean_anomaly": 122.8422,
        "meta_ephemeris_type": 0,
        "meta_classification_type": "U",
        "meta_norad_cat_id": 35288,
        "meta_element_set_no": 999,
        "meta_rev_at_epoch": 87961,
        "meta_bstar": 0.00084957845,
        "meta_mean_motion_dot": 4.628e-05,
        "meta_mean_motion_ddot": 0,
        "tle_line1": "1 35288U 93036AJS 25352.41598908  .00004628  00000+0  84958-3 0  9994",
        "tle_line2": "2 35288  73.9507   4.1890 0039170 236.8984 122.8422 14.65514950879613"
      },
      "geometry": {
        "type": "Point",
        "coordinates": [
          -25.813625822395036,
          -58.74129347312889
        ]
      }
    },
    {
      "type": "Feature",
      "properties": {
        "norad_id": 35290,
        "name": "COSMOS 2251 DEB",
        "group": "cosmos-2251-debris",
        "lat": -27.985256523036593,
        "lon": -124.73754312381986,
        "alt_km": 631.8916328232963,
        "timestamp": "2025-12-19T06:59:44.302731+00:00",
        "meta_object_name": "COSMOS 2251 DEB",
        "meta_object_id": "1993-036AJU",
        "meta_epoch": "2025-12-18T10:35:37.740192",
        "meta_mean_motion": 14.80538668,
        "meta_eccentricity": 0.00017523,
        "meta_inclination": 74.0053,
        "meta_ra_of_asc_node": 48.1735,
        "meta_arg_of_pericenter": 190.3211,
        "meta_mean_anomaly": 169.793,
        "meta_ephemeris_type": 0,
        "meta_classification_type": "U",
        "meta_norad_cat_id": 35290,
        "meta_element_set_no": 999,
        "meta_rev_at_epoch": 88042,
        "meta_bstar": 0.0015865438,
        "meta_mean_motion_dot": 0.00012147,
        "meta_mean_motion_ddot": 0,
        "tle_line1": "1 35290U 93036AJU 25352.44140903  .00012147  00000+0  15865-2 0  9993",
        "tle_line2": "2 35290  74.0053  48.1735 0001752 190.3211 169.7930 14.80538668880426"
      },
      "geometry": {
        "type": "Point",
        "coordinates": [
          -124.73754312381986,
          -27.985256523036593
        ]
      }
    },
    {
      "type": "Feature",
      "properties": {
        "norad_id": 35432,
        "name": "COSMOS 2251 DEB",
        "group": "cosmos-2251-debris",
        "lat": 13.96926438714803,
        "lon": 5.817497771467537,
        "alt_km": 488.49256278974644,
        "timestamp": "2025-12-19T06:59:44.302742+00:00",
        "meta_object_name": "COSMOS 2251 DEB",
        "meta_object_id": "1993-036AKA",
        "meta_epoch": "2025-12-17T10:48:56.006208",
        "meta_mean_motion": 15.23770731,
        "meta_eccentricity": 0.00123581,
        "meta_inclination": 74.0195,
        "meta_ra_of_asc_node": 5.6133,
        "meta_arg_of_pericenter": 333.6233,
        "meta_mean_anomaly": 26.4335,
        "meta_ephemeris_type": 0,
        "meta_classification_type": "U",
        "meta_norad_cat_id": 35432,
        "meta_element_set_no": 999,
        "meta_rev_at_epoch": 87575,
        "meta_bstar": 0.0028503415,
        "meta_mean_motion_dot": 0.00069351,
        "meta_mean_motion_ddot": 0,
        "tle_line1": "1 35432U 93036AKA 25351.45064822  .00069351  00000+0  28503-2 0  9998",
        "tle_line2": "2 35432  74.0195   5.6133 0012358 333.6233  26.4335 15.23770731875756"
      },
      "geometry": {
        "type": "Point",
        "coordinates": [
          5.817497771467537,
          13.96926438714803
        ]
      }
    },
    {
      "type": "Feature",
      "properties": {
        "norad_id": 35433,
        "name": "COSMOS 2251 DEB",
        "group": "cosmos-2251-debris",
        "lat": -71.0684788579669,
        "lon": -156.9699645980445,
        "alt_km": 791.8731976905783,
        "timestamp": "2025-12-19T06:59:44.302752+00:00",
        "meta_object_name": "COSMOS 2251 DEB",
        "meta_object_id": "1993-036AKB",
        "meta_epoch": "2025-12-10T18:27:52.031808",
        "meta_mean_motion": 14.34742553,
        "meta_eccentricity": 0.00254013,
        "meta_inclination": 74.0339,
        "meta_ra_of_asc_node": 342.0559,
        "meta_arg_of_pericenter": 37.4572,
        "meta_mean_anomaly": 142.4072,
        "meta_ephemeris_type": 0,
        "meta_classification_type": "U",
        "meta_norad_cat_id": 35433,
        "meta_element_set_no": 999,
        "meta_rev_at_epoch": 86552,
        "meta_bstar": 0.00041847558,
        "meta_mean_motion_dot": 1.164e-05,
        "meta_mean_motion_ddot": 0,
        "tle_line1": "1 35433U 93036AKB 25344.76935222  .00001164  00000+0  41848-3 0  9992",
        "tle_line2": "2 35433  74.0339 342.0559 0025401  37.4572 142.4072 14.34742553865528"
      },
      "geometry": {
        "type": "Point",
        "coordinates": [
          -156.9699645980445,
          -71.0684788579669
        ]
      }
    }
  ]
}